COSMOS 2251 DEB         
1 38212U 93036BTC 26065.88578778  .00002587  00000+0  33587-3 0  9994
2 38212  74.0491 271.5054 0093131 315.1951  44.1729 14.78300657825530
COSMOS 2251 DEB         
1 38220U 93036BTL 26064.96147906  .00042797  00000+0  34301-2 0  9997
2 38220  74.0103 259.8781 0003211 226.5417 133.5503 14.99909335726159
COSMOS 2251 DEB         
1 38479U 93036BTP 26063.26265138  .00003423  00000+0  10706-2 0  9999
2 38479  74.0123  33.6396 0078904 125.8730 300.6999 14.39302078658602
COSMOS 2251 DEB         
1 38481U 93036BTR 26058.73166242  .00002616  00000+0  15662-2 0  9993
2 38481  73.9303 234.4494 0230164 159.5246 201.5301 13.95198321601347
COSMOS 2251 DEB         
1 38483U 93036BTT 26058.77231368  .00001905  00000+0  70862-3 0  9995
2 38483  74.2588 233.8114 0113444 316.0658  43.1513 14.29234836645789
COSMOS 2251 DEB         
1 38486U 93036BTW 26061.34890227  .00019484  00000+0  27828-2 0  9994
2 38486  73.9396  48.4189 0030894 186.4811 242.4245 14.76329034766084
COSMOS 2251 DEB         
1 38487U 93036BTX 26059.73246497  .00064261  00000+0  24803-2 0  9992
2 38487  73.9681 229.3494 0021638  13.6287 346.5492 15.25753352679863
COSMOS 2251 DEB         
1 39109U 93036BTY 26055.77105705  .00002345  00000+0  37457-3 0  9995
2 39109  74.0411  81.3577 0057703 169.1149 309.3953 14.71359668662629
COSMOS 2251 DEB         
1 39546U 93036BUC 26065.44757614  .00014738  00000+0  13330-2 0  9999
2 39546  73.9983 327.9889 0040080 109.4037 251.1486 14.94820871656862
COSMOS 2251 DEB         
1 39547U 93036BUD 26049.23373905  .00051628  00000+0  29907-2 0  9992
2 39547  73.9998 239.3113 0003046 315.2619 161.0018 15.11947293650423
COSMOS 2251 DEB         
1 39553U 93036BUK 26059.06380821  .00001814  00000+0  10340-2 0  9999
2 39553  74.0287 196.0355 0206744 313.8074  44.6119 14.00266341766992
COSMOS 2251 DEB         
1 39554U 93036BUL 26064.40542915  .00085528  00000+0  37381-2 0  9996
2 39554  74.0076  92.2729 0012595 267.7777 157.3463 15.21602286656377
COSMOS 2251 DEB         
1 39585U 93036BUQ 26038.14491554  .00001509  00000+0  31897-3 0  9998
2 39585  74.0403 193.9274 0067769 300.7751  58.6753 14.58844351633439
COSMOS 2251 DEB         
1 39586U 93036BUR 26061.43224745  .00000809  00000+0  36244-3 0  9996
2 39586  74.0074  85.1557 0102084 203.0522 224.9463 14.21408980621045
COSMOS 2251 DEB         
1 39591U 93036BUW 26060.45318581  .00001221  00000+0  37778-3 0  9997
2 39591  74.0181 100.7281 0029896 201.1460 222.9430 14.42055642629111
COSMOS 2251 DEB         
1 40218U 93036BUX 26054.50641051  .00000903  00000+0  28393-3 0  9994
2 40218  74.0313 113.9714 0016440 191.9106 168.1664 14.41801815599102
