[{"OBJECT_NAME":"COSMOS 2251 DEB","OBJECT_ID":"1993-036BTC","EPOCH":"2026-03-06T21:15:32.065056","MEAN_MOTION":14.78300657,"ECCENTRICITY":0.00931311,"INCLINATION":74.0491,"RA_OF_ASC_NODE":271.5054,"ARG_OF_PERICENTER":315.1951,"MEAN_ANOMALY":44.1729,"EPHEMERIS_TYPE":0,"CLASSIFICATION_TYPE":"U","NORAD_CAT_ID":38212,"ELEMENT_SET_NO":999,"REV_AT_EPOCH":82553,"BSTAR":0.00033586703,"MEAN_MOTION_DOT":2.587e-5,"MEAN_MOTION_DDOT":0},{"OBJECT_NAME":"COSMOS 2251 DEB","OBJECT_ID":"1993-036BTL","EPOCH":"2026-03-05T23:04:31.790784","MEAN_MOTION":14.99909335,"ECCENTRICITY":0.00032115,"INCLINATION":74.0103,"RA_OF_ASC_NODE":259.8781,"ARG_OF_PERICENTER":226.5417,"MEAN_ANOMALY":133.5503,"EPHEMERIS_TYPE":0,"CLASSIFICATION_TYPE":"U","NORAD_CAT_ID":38220,"ELEMENT_SET_NO":999,"REV_AT_EPOCH":72615,"BSTAR":0.0034301399,"MEAN_MOTION_DOT":0.00042797,"MEAN_MOTION_DDOT":0},{"OBJECT_NAME":"COSMOS 2251 DEB","OBJECT_ID":"1993-036BTP","EPOCH":"2026-03-04T06:18:13.079232","MEAN_MOTION":14.39302078,"ECCENTRICITY":0.00789047,"INCLINATION":74.0123,"RA_OF_ASC_NODE":33.6396,"ARG_OF_PERICENTER":125.873,"MEAN_ANOMALY":300.6999,"EPHEMERIS_TYPE":0,"CLASSIFICATION_TYPE":"U","NORAD_CAT_ID":38479,"ELEMENT_SET_NO":999,"REV_AT_EPOCH":65860,"BSTAR":0.0010705986,"MEAN_MOTION_DOT":3.423e-5,"MEAN_MOTION_DDOT":0},{"OBJECT_NAME":"COSMOS 2251 DEB","OBJECT_ID":"1993-036BTR","EPOCH":"2026-02-27T17:33:35.633088","MEAN_MOTION":13.95198321,"ECCENTRICITY":0.02301647,"INCLINATION":73.9303,"RA_OF_ASC_NODE":234.4494,"ARG_OF_PERICENTER":159.5246,"MEAN_ANOMALY":201.5301,"EPHEMERIS_TYPE":0,"CLASSIFICATION_TYPE":"U","NORAD_CAT_ID":38481,"ELEMENT_SET_NO":999,"REV_AT_EPOCH":60134,"BSTAR":0.0015661763,"MEAN_MOTION_DOT":2.616e-5,"MEAN_MOTION_DDOT":0},{"OBJECT_NAME":"COSMOS 2251 DEB","OBJECT_ID":"1993-036BTT","EPOCH":"2026-02-27T18:32:07.901952","MEAN_MOTION":14.29234836,"ECCENTRICITY":0.0113444,"INCLINATION":74.2588,"RA_OF_ASC_NODE":233.8114,"ARG_OF_PERICENTER":316.0658,"MEAN_ANOMALY":43.1513,"EPHEMERIS_TYPE":0,"CLASSIFICATION_TYPE":"U","NORAD_CAT_ID":38483,"ELEMENT_SET_NO":999,"REV_AT_EPOCH":64578,"BSTAR":0.00070861637,"MEAN_MOTION_DOT":1.905e-5,"MEAN_MOTION_DDOT":0},{"OBJECT_NAME":"COSMOS 2251 DEB","OBJECT_ID":"1993-036BTW","EPOCH":"2026-03-02T08:22:25.156128","MEAN_MOTION":14.76329034,"ECCENTRICITY":0.00308943,"INCLINATION":73.9396,"RA_OF_ASC_NODE":48.4189,"ARG_OF_PERICENTER":186.4811,"MEAN_ANOMALY":242.4245,"EPHEMERIS_TYPE":0,"CLASSIFICATION_TYPE":"U","NORAD_CAT_ID":38486,"ELEMENT_SET_NO":999,"REV_AT_EPOCH":76608,"BSTAR":0.0027827624,"MEAN_MOTION_DOT":0.00019484,"MEAN_MOTION_DDOT":0},{"OBJECT_NAME":"COSMOS 2251 DEB","OBJECT_ID":"1993-036BTX","EPOCH":"2026-02-28T17:34:44.973408","MEAN_MOTION":15.25753352,"ECCENTRICITY":0.00216382,"INCLINATION":73.9681,"RA_OF_ASC_NODE":229.3494,"ARG_OF_PERICENTER":13.6287,"MEAN_ANOMALY":346.5492,"EPHEMERIS_TYPE":0,"CLASSIFICATION_TYPE":"U","NORAD_CAT_ID":38487,"ELEMENT_SET_NO":999,"REV_AT_EPOCH":67986,"BSTAR":0.0024802785,"MEAN_MOTION_DOT":0.00064261,"MEAN_MOTION_DDOT":0},{"OBJECT_NAME":"COSMOS 2251 DEB","OBJECT_ID":"1993-036BTY","EPOCH":"2026-02-24T18:30:19.329120","MEAN_MOTION":14.71359668,"ECCENTRICITY":0.00577032,"INCLINATION":74.0411,"RA_OF_ASC_NODE":81.3577,"ARG_OF_PERICENTER":169.1149,"MEAN_ANOMALY":309.3953,"EPHEMERIS_TYPE":0,"CLASSIFICATION_TYPE":"U","NORAD_CAT_ID":39109,"ELEMENT_SET_NO":999,"REV_AT_EPOCH":66262,"BSTAR":0.00037457225,"MEAN_MOTION_DOT":2.345e-5,"MEAN_MOTION_DDOT":0},{"OBJECT_NAME":"COSMOS 2251 DEB","OBJECT_ID":"1993-036BUC","EPOCH":"2026-03-06T10:44:30.578496","MEAN_MOTION":14.94820871,"ECCENTRICITY":0.00400804,"INCLINATION":73.9983,"RA_OF_ASC_NODE":327.9889,"ARG_OF_PERICENTER":109.4037,"MEAN_ANOMALY":251.1486,"EPHEMERIS_TYPE":0,"CLASSIFICATION_TYPE":"U","NORAD_CAT_ID":39546,"ELEMENT_SET_NO":999,"REV_AT_EPOCH":65686,"BSTAR":0.0013330153,"MEAN_MOTION_DOT":0.00014738,"MEAN_MOTION_DDOT":0},{"OBJECT_NAME":"COSMOS 2251 DEB","OBJECT_ID":"1993-036BUD","EPOCH":"2026-02-18T05:36:35.053920","MEAN_MOTION":15.11947293,"ECCENTRICITY":0.0003046,"INCLINATION":73.9998,"RA_OF_ASC_NODE":239.3113,"ARG_OF_PERICENTER":315.2619,"MEAN_ANOMALY":161.0018,"EPHEMERIS_TYPE":0,"CLASSIFICATION_TYPE":"U","NORAD_CAT_ID":39547,"ELEMENT_SET_NO":999,"REV_AT_EPOCH":65042,"BSTAR":0.0029907,"MEAN_MOTION_DOT":0.00051628,"MEAN_MOTION_DDOT":0},{"OBJECT_NAME":"COSMOS 2251 DEB","OBJECT_ID":"1993-036BUK","EPOCH":"2026-02-28T01:31:53.029344","MEAN_MOTION":14.00266341,"ECCENTRICITY":0.02067446,"INCLINATION":74.0287,"RA_OF_ASC_NODE":196.0355,"ARG_OF_PERICENTER":313.8074,"MEAN_ANOMALY":44.6119,"EPHEMERIS_TYPE":0,"CLASSIFICATION_TYPE":"U","NORAD_CAT_ID":39553,"ELEMENT_SET_NO":999,"REV_AT_EPOCH":76699,"BSTAR":0.0010339774,"MEAN_MOTION_DOT":1.814e-5,"MEAN_MOTION_DDOT":0},{"OBJECT_NAME":"COSMOS 2251 DEB","OBJECT_ID":"1993-036BUL","EPOCH":"2026-03-05T09:43:49.078560","MEAN_MOTION":15.21602286,"ECCENTRICITY":0.00125953,"INCLINATION":74.0076,"RA_OF_ASC_NODE":92.2729,"ARG_OF_PERICENTER":267.7777,"MEAN_ANOMALY":157.3463,"EPHEMERIS_TYPE":0,"CLASSIFICATION_TYPE":"U","NORAD_CAT_ID":39554,"ELEMENT_SET_NO":999,"REV_AT_EPOCH":65637,"BSTAR":0.0037381485,"MEAN_MOTION_DOT":0.00085528,"MEAN_MOTION_DDOT":0},{"OBJECT_NAME":"COSMOS 2251 DEB","OBJECT_ID":"1993-036BUQ","EPOCH":"2026-02-07T03:28:40.702656","MEAN_MOTION":14.58844351,"ECCENTRICITY":0.00677691,"INCLINATION":74.0403,"RA_OF_ASC_NODE":193.9274,"ARG_OF_PERICENTER":300.7751,"MEAN_ANOMALY":58.6753,"EPHEMERIS_TYPE":0,"CLASSIFICATION_TYPE":"U","NORAD_CAT_ID":39585,"ELEMENT_SET_NO":999,"REV_AT_EPOCH":63343,"BSTAR":0.00031897443,"MEAN_MOTION_DOT":1.509e-5,"MEAN_MOTION_DDOT":0},{"OBJECT_NAME":"COSMOS 2251 DEB","OBJECT_ID":"1993-036BUR","EPOCH":"2026-03-02T10:22:26.179680","MEAN_MOTION":14.2140898,"ECCENTRICITY":0.01020843,"INCLINATION":74.0074,"RA_OF_ASC_NODE":85.1557,"ARG_OF_PERICENTER":203.0522,"MEAN_ANOMALY":224.9463,"EPHEMERIS_TYPE":0,"CLASSIFICATION_TYPE":"U","NORAD_CAT_ID":39586,"ELEMENT_SET_NO":999,"REV_AT_EPOCH":62104,"BSTAR":0.00036244485,"MEAN_MOTION_DOT":8.09e-6,"MEAN_MOTION_DDOT":0},{"OBJECT_NAME":"COSMOS 2251 DEB","OBJECT_ID":"1993-036BUW","EPOCH":"2026-03-01T10:52:35.253984","MEAN_MOTION":14.42055642,"ECCENTRICITY":0.00298968,"INCLINATION":74.0181,"RA_OF_ASC_NODE":100.7281,"ARG_OF_PERICENTER":201.146,"MEAN_ANOMALY":222.943,"EPHEMERIS_TYPE":0,"CLASSIFICATION_TYPE":"U","NORAD_CAT_ID":39591,"ELEMENT_SET_NO":999,"REV_AT_EPOCH":62911,"BSTAR":0.0003777758,"MEAN_MOTION_DOT":1.221e-5,"MEAN_MOTION_DDOT":0},{"OBJECT_NAME":"COSMOS 2251 DEB","OBJECT_ID":"1993-036BUX","EPOCH":"2026-02-23T12:09:13.868064","MEAN_MOTION":14.41801815,"ECCENTRICITY":0.00164408,"INCLINATION":74.0313,"RA_OF_ASC_NODE":113.9714,"ARG_OF_PERICENTER":191.9106,"MEAN_ANOMALY":168.1664,"EPHEMERIS_TYPE":0,"CLASSIFICATION_TYPE":"U","NORAD_CAT_ID":40218,"ELEMENT_SET_NO":999,"REV_AT_EPOCH":59910,"BSTAR":0.00028392654,"MEAN_MOTION_DOT":9.03e-6,"MEAN_MOTION_DDOT":0}]
